NORAD_CAT_ID,OBJECT_NAME,OBJECT_TYPE,EPOCH,MEAN_MOTION,ECCENTRICITY,INCLINATION,RA_OF_ASC_NODE,ARG_OF_PERICENTER,MEAN_ANOMALY,BSTAR,MEAN_MOTION_DOT,MEAN_MOTION_DDOT,TLE_LINE0,TLE_LINE1,TLE_LINE2,SEMIMAJOR_AXIS,PERIOD,APOGEE,PERIGEE,DECAYED
53704.0,STARLINK-4714,PAYLOAD,2022-09-12 14:00:01,15.79160352,9.53e-05,53.2172,236.0989,100.2846,247.0122,-0.0073805999999999,-0.01197056,0.0,0 STARLINK-4714,1 53704U 22107E   22255.58334491 -.01197056  00000-0 -73806-2 0  9991,2 53704  53.2172 236.0989 0000953 100.2846 247.0122 15.79160352  1307,6710.955,91.188,333.46,332.181,0.0
53704.0,STARLINK-4714,PAYLOAD,2022-09-13 06:00:00,15.77423893,0.000124,53.2173,232.7756,73.2859,104.0788,-0.0079718,-0.01195237,0.0,0 STARLINK-4714,1 53704U 22107E   22256.25001157 -.01195237  00000-0 -79718-2 0  9993,2 53704  53.2173 232.7756 0001240  73.2859 104.0788 15.77423893  1407,6715.88,91.288,338.577,336.912,0.0
53704.0,STARLINK-4714,PAYLOAD,2022-09-13 14:00:01,15.76557298,0.0001062,53.2174,231.1159,80.6335,190.2014,-0.0083052,-0.01197366,0.0,0 STARLINK-4714,1 53704U 22107E   22256.58334491 -.01197366  00000-0 -83052-2 0  9990,2 53704  53.2174 231.1159 0001062  80.6335 190.2014 15.76557298  1305,6718.34,91.338,340.9190000000001,339.492,0.0
53704.0,STARLINK-4714,PAYLOAD,2022-09-13 20:00:01,15.75903514,0.0001104,53.2174,229.8719,85.1229,165.1316,-0.0085117,-0.01192553,0.0,0 STARLINK-4714,1 53704U 22107E   22256.83334491 -.01192553  00000-0 -85117-2 0  9995,2 53704  53.2174 229.8719 0001104  85.1229 165.1316 15.75903514  1491,6720.198,91.376,342.805,341.321,0.0
53704.0,STARLINK-4714,PAYLOAD,2022-09-13 22:00:00,15.75685328,0.0001036999999999,53.2177,229.458,111.975,251.2885,-0.0085737,-0.01189963,0.0,0 STARLINK-4714,1 53704U 22107E   22256.91667824 -.01189963  00000-0 -85737-2 0  9992,2 53704  53.2177 229.4580 0001037 111.9750 251.2885 15.75685328  1306,6720.819,91.389,343.381,341.987,0.0
53704.0,STARLINK-4714,PAYLOAD,2022-09-14 14:00:01,15.738079199999998,0.0001039,53.2173,226.1522,87.1102,97.8968,-0.0052141999999999,-0.00692916,0.0,0 STARLINK-4714,1 53704U 22107E   22257.58334491 -.00692916  00000-0 -52142-2 0  9997,2 53704  53.2173 226.1522 0001039  87.1102  97.8968 15.73807920  1307,6726.163000000001,91.498,348.726,347.329,0.0
53704.0,STARLINK-4714,PAYLOAD,2022-09-14 20:00:01,15.73290906,0.0001006,53.2172,224.913,100.9135,61.1881,-0.0010062,-0.00140045,0.0,0 STARLINK-4714,1 53704U 22107E   22257.83334491 -.00140045  00000-0 -10062-2 0  9991,2 53704  53.2172 224.9130 0001006 100.9135  61.1881 15.73290906  1657,6727.636,91.528,350.17800000000005,348.824,0.0
53704.0,STARLINK-4714,PAYLOAD,2022-09-14 22:00:00,15.73205517,0.0001179,53.2174,224.5007,104.9094,169.4665,-1.5507999999999998e-05,-2.796e-05,0.0,0 STARLINK-4714,1 53704U 22107E   22257.91667824 -.00002796  00000-0 -15508-4 0  9991,2 53704  53.2174 224.5007 0001179 104.9094 169.4665 15.73205517  1305,6727.879,91.533,350.538,348.951,0.0
53704.0,STARLINK-4714,PAYLOAD,2022-09-15 04:00:00,15.73199044,8.96e-05,53.213,223.2662,99.9489,150.9397,0.00029094,0.00040406,0.0,0 STARLINK-4714,1 53704U 22107E   22258.16667824  .00040406  00000-0  29094-3 0  9991,2 53704  53.2130 223.2662 0000896  99.9489 150.9397 15.73199044  1704,6727.898,91.533,350.366,349.16,0.0
53704.0,STARLINK-4714,PAYLOAD,2022-09-15 14:00:01,15.73277995,8.740000000000001e-05,53.2141,221.2033,104.7499,347.3478,0.00024846,0.00034509,0.0,0 STARLINK-4714,1 53704U 22107E   22258.58334491  .00034509  00000-0  24846-3 0  9995,2 53704  53.2141 221.2033 0000874 104.7499 347.3478 15.73277995  1308,6727.6730000000025,91.529,350.126,348.95,0.0
53704.0,STARLINK-4714,PAYLOAD,2022-09-15 22:00:00,15.73351907,0.0001142,53.2148,219.5528,111.08,70.0417,-0.00080392,-0.00112673,0.0,0 STARLINK-4714,1 53704U 22107E   22258.91667824 -.00112673  00000-0 -80392-3 0  9990,2 53704  53.2148 219.5528 0001142 111.0800  70.0417 15.73351907  1309,6727.462,91.524,350.095,348.559,0.0
53704.0,STARLINK-4714,PAYLOAD,2022-09-16 00:00:00,15.73351456,0.0001113,53.2149,219.141,108.6851,184.7062,-0.0011087,-0.0015439,0.0,0 STARLINK-4714,1 53704U 22107E   22259.00001157 -.00154390  00000-0 -11087-2 0  9998,2 53704  53.2149 219.1410 0001113 108.6851 184.7062 15.73351456  1838,6727.4630000000025,91.524,350.077,348.58,0.0
53704.0,STARLINK-4714,PAYLOAD,2022-09-16 14:00:01,15.73208665,0.0001042999999999,53.2142,216.2542,111.5953,247.5608,-0.00094862,-0.00131733,0.0,0 STARLINK-4714,1 53704U 22107E   22259.58334491 -.00131733  00000-0 -94862-3 0  9990,2 53704  53.2142 216.2542 0001043 111.5953 247.5608 15.73208665  1302,6727.87,91.533,350.43699999999984,349.034,0.0
53704.0,STARLINK-4714,PAYLOAD,2022-09-16 16:00:00,15.73150284,0.0001004,53.2142,215.8414,116.9221,354.4746,-0.00028046,-0.0003971,0.0,0 STARLINK-4714,1 53704U 22107E   22259.66667824 -.00039710  00000-0 -28046-3 0  9991,2 53704  53.2142 215.8414 0001004 116.9221 354.4746 15.73150284  1943,6728.0369999999975,91.536,350.577,349.226,0.0
53704.0,STARLINK-4714,PAYLOAD,2022-09-16 22:00:00,15.73123075,0.0001082,53.2144,214.6041,119.6585,328.3758,0.00038124,0.00053046,0.0,0 STARLINK-4714,1 53704U 22107E   22259.91667824  .00053046  00000-0  38124-3 0  9993,2 53704  53.2144 214.6041 0001082 119.6585 328.3758 15.73123075  1308,6728.114000000001,91.538,350.707,349.25199999999984,0.0
53704.0,STARLINK-4714,PAYLOAD,2022-09-17 06:00:00,15.73165661,0.0001044999999999,53.2145,212.9568,103.7694,73.1378,-0.00012194,-0.00017671,0.0,0 STARLINK-4714,1 53704U 22107E   22260.25001157 -.00017671  00000-0 -12194-3 0  9998,2 53704  53.2145 212.9568 0001045 103.7694  73.1378 15.73165661  2039,6727.993,91.535,350.561,349.155,0.0
53704.0,STARLINK-4714,PAYLOAD,2022-09-17 14:00:01,15.7314994,0.0001159,53.2144,211.3059,110.6376,155.1467,0.0001799,0.00024648,0.0,0 STARLINK-4714,1 53704U 22107E   22260.58334491  .00024648  00000-0  17990-3 0  9993,2 53704  53.2144 211.3059 0001159 110.6376 155.1467 15.73149940  1307,6728.038000000001,91.536,350.68300000000005,349.12300000000016,0.0
53704.0,STARLINK-4714,PAYLOAD,2022-09-17 22:00:00,15.73190954,0.0001256,53.2144,209.6561,114.6172,240.0406,0.00028715,0.00039855,0.0,0 STARLINK-4714,1 53704U 22107E   22260.91667824  .00039855  00000-0  28715-3 0  9992,2 53704  53.2144 209.6561 0001256 114.6172 240.0406 15.73190954  2142,6727.920999999999,91.534,350.631,348.941,0.0
53704.0,STARLINK-4714,PAYLOAD,2022-09-18 14:00:01,15.73215184,0.0001343,53.2137,206.3572,112.6008,60.0368,0.00016034,0.00021956,0.0,0 STARLINK-4714,1 53704U 22107E   22261.58335648  .00021956  00000-0  16034-3 0  9996,2 53704  53.2137 206.3572 0001343 112.6008  60.0368 15.73215184  1300,6727.852,91.532,350.62,348.81300000000016,0.0
53704.0,STARLINK-4714,PAYLOAD,2022-09-18 22:00:00,15.73273349,0.0001443999999999,53.2139,204.7075,119.9889,141.5278,-6.4367e-05,-9.672e-05,0.0,0 STARLINK-4714,1 53704U 22107E   22261.91667824 -.00009672  00000-0 -64367-4 0  9993,2 53704  53.2139 204.7075 0001444 119.9889 141.5278 15.73273349  2292,6727.686,91.529,350.523,348.58,0.0
53704.0,STARLINK-4714,PAYLOAD,2022-09-19 14:00:01,15.73224483,0.0001193,53.2141,201.4082,121.6581,317.8615,-0.00048221,-0.00067821,0.0,0 STARLINK-4714,1 53704U 22107E   22262.58334491 -.00067821  00000-0 -48221-3 0  9998,2 53704  53.2141 201.4082 0001193 121.6581 317.8615 15.73224483  2408,6727.825,91.532,350.49300000000005,348.88800000000015,0.0
53704.0,STARLINK-4714,PAYLOAD,2022-09-19 22:00:00,15.73203254,0.0001210999999999,53.2141,199.7586,126.2238,42.2214,0.00025222,0.00034929,0.0,0 STARLINK-4714,1 53704U 22107E   22262.91667824  .00034929  00000-0  25222-3 0  9991,2 53704  53.2141 199.7586 0001211 126.2238  42.2214 15.73203254  1302,6727.886,91.533,350.566,348.936,0.0
53704.0,STARLINK-4714,PAYLOAD,2022-09-20 14:00:01,15.73181518,0.0001122,53.2135,196.4594,132.5746,213.7534,-6.403e-05,-9.588e-05,0.0,0 STARLINK-4714,1 53704U 22107E   22263.58334491 -.00009588  00000-0 -64030-4 0  9992,2 53704  53.2135 196.4594 0001122 132.5746 213.7534 15.73181518  1301,6727.948,91.534,350.5680000000001,349.05800000000005,0.0
53704.0,STARLINK-4714,PAYLOAD,2022-09-20 22:00:01,15.73191179,0.0001252,53.2139,194.8101,128.6712,306.603,0.00018328,0.00025169,0.0,0 STARLINK-4714,1 53704U 22107E   22263.91668981  .00025169  00000-0  18328-3 0  9992,2 53704  53.2139 194.8101 0001252 128.6712 306.6030 15.73191179  1301,6727.92,91.534,350.62800000000016,348.9430000000001,0.0
53704.0,STARLINK-4714,PAYLOAD,2022-09-21 06:00:00,15.73187958,0.0001137999999999,53.214,193.1623,117.7684,46.3762,0.00013587,0.00018481,0.0,0 STARLINK-4714,1 53704U 22107E   22264.25001157  .00018481  00000-0  13587-3 0  9997,2 53704  53.2140 193.1623 0001138 117.7684  46.3762 15.73187958  2664,6727.93,91.534,350.56,349.029,0.0
53704.0,STARLINK-4714,PAYLOAD,2022-09-21 22:00:00,15.73256392,0.0001478,53.2143,189.8616,120.6188,221.3632,-0.00062958,-0.0008827,0.0,0 STARLINK-4714,1 53704U 22107E   22264.91667824 -.00088270  00000-0 -62958-3 0  9990,2 53704  53.2143 189.8616 0001478 120.6188 221.3632 15.73256392  1300,6727.734,91.53,350.594,348.605,0.0
53704.0,STARLINK-4714,PAYLOAD,2022-09-22 06:00:00,15.73197561,0.0001398,53.2139,188.2135,113.3615,317.5807,0.00020252,0.00027894,0.0,0 STARLINK-4714,1 53704U 22107E   22265.25001157  .00027894  00000-0  20252-3 0  9993,2 53704  53.2139 188.2135 0001398 113.3615 317.5807 15.73197561  2821,6727.901999999999,91.533,350.708,348.827,0.0
53704.0,STARLINK-4714,PAYLOAD,2022-09-22 14:00:01,15.73158004,0.0001368,53.214,186.562,128.7323,31.1598,0.00050026,0.00070049,0.0,0 STARLINK-4714,1 53704U 22107E   22265.58334491  .00070049  00000-0  50026-3 0  9991,2 53704  53.2140 186.5620 0001368 128.7323  31.1598 15.73158004  1303,6728.015,91.536,350.8,348.96,0.0
53704.0,STARLINK-4714,PAYLOAD,2022-09-22 22:00:00,15.73239971,0.0001491,53.2143,184.9132,126.4605,122.3298,-0.00067183,-0.00094023,0.0,0 STARLINK-4714,1 53704U 22107E   22265.91667824 -.00094023  00000-0 -67183-3 0  9999,2 53704  53.2143 184.9132 0001491 126.4605 122.3298 15.73239971  2923,6727.781,91.531,350.649,348.64300000000014,0.0
